NORAD_CAT_ID,OBJECT_NAME,OBJECT_TYPE,EPOCH,MEAN_MOTION,ECCENTRICITY,INCLINATION,RA_OF_ASC_NODE,ARG_OF_PERICENTER,MEAN_ANOMALY,BSTAR,MEAN_MOTION_DOT,MEAN_MOTION_DDOT,TLE_LINE0,TLE_LINE1,TLE_LINE2,SEMIMAJOR_AXIS,PERIOD,APOGEE,PERIGEE,DECAYED
53612.0,STARLINK-4658,PAYLOAD,2022-10-04 14:00:01,15.73212822,0.0001492,53.2155,102.6263,124.4474,183.8793,-0.00049976,-0.00070215,0.0,0 STARLINK-4658,1 53612U 22104AA  22277.58334491 -.00070215  00000-0 -49976-3 0  9998,2 53612  53.2155 102.6263 0001492 124.4474 183.8793 15.73212822  5920,6727.859,91.532,350.727,348.72,0.0
53612.0,STARLINK-4658,PAYLOAD,2022-10-04 22:00:00,15.73123082,0.000131,53.2154,100.9787,114.5131,282.7511,0.00055213,0.00077328,0.0,0 STARLINK-4658,1 53612U 22104AA  22277.91667824  .00077328  00000-0  55213-3 0  9995,2 53612  53.2154 100.9787 0001310 114.5131 282.7511 15.73123082  1304,6728.114000000001,91.538,350.861,349.098,0.0
53612.0,STARLINK-4658,PAYLOAD,2022-10-05 06:00:00,15.7318174,0.0001249,53.2151,99.3275,120.5923,5.5416,-0.00011623,-0.00016886,0.0,0 STARLINK-4658,1 53612U 22104AA  22278.25001157 -.00016886  00000-0 -11623-3 0  9995,2 53612  53.2151  99.3275 0001249 120.5923   5.5416 15.73181740  6036,6727.946999999999,91.534,350.653,348.972,0.0
53612.0,STARLINK-4658,PAYLOAD,2022-10-05 14:00:01,15.73219202,0.0001338,53.2154,97.6778,122.9318,92.1537,-0.00013569,-0.00019634,0.0,0 STARLINK-4658,1 53612U 22104AA  22278.58335648 -.00019634  00000-0 -13569-3 0  9991,2 53612  53.2154  97.6778 0001338 122.9318  92.1537 15.73219202  6087,6727.84,91.532,350.606,348.805,0.0
53612.0,STARLINK-4658,PAYLOAD,2022-10-05 22:00:00,15.73255618,0.0001019,53.2159,96.0301,116.7938,187.1603,-0.0011795,-0.00163362,0.0,0 STARLINK-4658,1 53612U 22104AA  22278.91667824 -.00163362  00000-0 -11795-2 0  9998,2 53612  53.2159  96.0301 0001019 116.7938 187.1603 15.73255618  1302,6727.736999999999,91.53,350.287,348.916,0.0
53612.0,STARLINK-4658,PAYLOAD,2022-10-06 14:00:01,15.73009024,0.0001284,53.2168,92.7281,113.2353,8.6096,-0.0045486,-0.00591159,0.0,0 STARLINK-4658,1 53612U 22104AA  22279.58334491 -.00591159  00000-0 -45486-2 0  9996,2 53612  53.2168  92.7281 0001284 113.2353   8.6096 15.73009024  1300,6728.44,91.544,351.1690000000001,349.441,0.0
53612.0,STARLINK-4658,PAYLOAD,2022-10-06 22:42:55,15.72533867,9.57e-05,53.2174,90.9336,101.165,277.8977,-0.0085644,-0.01051265,0.0,0 STARLINK-4658,1 53612U 22104AA  22279.94646991 -.01051265  00000-0 -85644-2 0  9997,2 53612  53.2174  90.9336 0000957 101.1650 277.8977 15.72533867  1304,6729.795,91.572,352.30400000000014,351.016,0.0
53612.0,STARLINK-4658,PAYLOAD,2022-10-07 00:00:00,15.72413658,0.0001016,53.2173,90.6687,107.4073,214.9216,-0.0086286,-0.01053472,0.0,0 STARLINK-4658,1 53612U 22104AA  22280.00001157 -.01053472  00000-0 -86286-2 0  9990,2 53612  53.2173  90.6687 0001016 107.4073 214.9216 15.72413658  6302,6730.138000000001,91.579,352.68699999999984,351.319,0.0
53612.0,STARLINK-4658,PAYLOAD,2022-10-07 14:00:01,15.71085484,0.0001026,53.2177,87.7869,107.3161,277.5699,-0.0091536,-0.01055765,0.0,0 STARLINK-4658,1 53612U 22104AA  22280.58334491 -.01055765  00000-0 -91536-2 0  9994,2 53612  53.2177  87.7869 0001026 107.3161 277.5699 15.71085484  1309,6733.931,91.656,356.486,355.105,0.0
53612.0,STARLINK-4658,PAYLOAD,2022-10-07 22:00:00,15.70328866,0.000109,53.2171,86.1452,99.7039,11.0995,-0.0094752999999999,-0.01058232,0.0,0 STARLINK-4658,1 53612U 22104AA  22280.91667824 -.01058232  00000-0 -94753-2 0  9996,2 53612  53.2171  86.1452 0001090  99.7039  11.0995 15.70328866  6457,6736.093000000003,91.701,358.6930000000001,357.224,0.0
53612.0,STARLINK-4658,PAYLOAD,2022-10-08 14:00:01,15.68809912,0.0001103,53.217,82.8621,102.2217,177.6848,-0.010097,-0.0105825,0.0,0 STARLINK-4658,1 53612U 22104AA  22281.58334491 -.01058250  00000-0 -10097-1 0  9999,2 53612  53.2170  82.8621 0001103 102.2217 177.6848 15.68809912  1308,6740.441,91.789,363.049,361.562,0.0
53612.0,STARLINK-4658,PAYLOAD,2022-10-08 22:00:00,15.68050347,9.97e-05,53.217,81.2259,96.7396,266.3482,-0.010406,-0.01056971,0.0,0 STARLINK-4658,1 53612U 22104AA  22281.91667824 -.01056971  00000-0 -10406-1 0  9997,2 53612  53.2170  81.2259 0000997  96.7396 266.3482 15.68050347  6601,6742.6169999999975,91.834,365.154,363.81,0.0
53612.0,STARLINK-4658,PAYLOAD,2022-10-09 14:00:01,15.66529972,0.0001204,53.2173,77.954,74.8792,91.836,-0.011052,-0.01055047,0.0,0 STARLINK-4658,1 53612U 22104AA  22282.58334491 -.01055047  00000-0 -11052-1 0  9993,2 53612  53.2173  77.9540 0001204  74.8792  91.8360 15.66529972  1309,6746.979,91.923,369.657,368.032,0.0
53612.0,STARLINK-4658,PAYLOAD,2022-10-09 22:00:00,15.65764305,0.000117,53.2172,76.32300000000002,74.2519,172.9091,-0.011285,-0.01045395,0.0,0 STARLINK-4658,1 53612U 22104AA  22282.91667824 -.01045395  00000-0 -11285-1 0  9992,2 53612  53.2172  76.3230 0001170  74.2519 172.9091 15.65764305  6767,6749.179,91.968,371.833,370.254,0.0
53612.0,STARLINK-4658,PAYLOAD,2022-10-10 14:00:01,15.64248594,0.0001036,53.2174,73.0628,84.913,320.3977,-0.012064,-0.0105083,0.0,0 STARLINK-4658,1 53612U 22104AA  22283.58334491 -.01050830  00000-0 -12064-1 0  9993,2 53612  53.2174  73.0628 0001036  84.9130 320.3977 15.64248594  1305,6753.538000000001,92.057,376.102,374.703,0.0
53612.0,STARLINK-4658,PAYLOAD,2022-10-10 22:00:01,15.63486883,0.0001129,53.2172,71.4369,78.8331,44.249,-0.01238,-0.01046651,0.0,0 STARLINK-4658,1 53612U 22104AA  22283.91668981 -.01046651  00000-0 -12380-1 0  9991,2 53612  53.2172  71.4369 0001129  78.8331  44.2490 15.63486883  1301,6755.731,92.102,378.359,376.833,0.0
53612.0,STARLINK-4658,PAYLOAD,2022-10-11 14:00:01,15.61968005,0.0001161,53.2176,68.188,80.9766,194.7149,-0.013141,-0.01062716,0.0,0 STARLINK-4658,1 53612U 22104AA  22284.58334491 -.01062716  00000-0 -13141-1 0  9997,2 53612  53.2176  68.1880 0001161  80.9766 194.7149 15.61968005  1309,6760.11,92.191,382.76,381.19,0.0
53612.0,STARLINK-4658,PAYLOAD,2022-10-11 22:00:00,15.61226635,0.0001017,53.2169,66.5676,61.6313,289.0189,-0.013863,-0.01086713,0.0,0 STARLINK-4658,1 53612U 22104AA  22284.91667824 -.01086713  00000-0 -13863-1 0  9997,2 53612  53.2169  66.5676 0001017  61.6313 289.0189 15.61226635  1308,6762.25,92.235,384.802,383.427,0.0
53612.0,STARLINK-4658,PAYLOAD,2022-10-12 06:00:00,15.60448483,0.0001071,53.2174,64.946,69.1658,355.5505,-0.013935,-0.01062269,0.0,0 STARLINK-4658,1 53612U 22104AA  22285.25001157 -.01062269  00000-0 -13935-1 0  9996,2 53612  53.2174  64.9460 0001071  69.1658 355.5505 15.60448483  7136,6764.498000000001,92.281,387.087,385.638,0.0
53612.0,STARLINK-4658,PAYLOAD,2022-10-12 14:00:01,15.59688438,0.0001266,53.2174,63.3297,68.40100000000001,69.4573,-0.0143259999999999,-0.01060761,0.0,0 STARLINK-4658,1 53612U 22104AA  22285.58334491 -.01060761  00000-0 -14326-1 0  9992,2 53612  53.2174  63.3297 0001266  68.4010  69.4573 15.59688438  1300,6766.695,92.326,389.417,387.703,0.0
53612.0,STARLINK-4658,PAYLOAD,2022-10-12 22:00:00,15.58931288,0.0001252,53.217,61.7146,70.9087,139.1784,-0.014799,-0.0106413,0.0,0 STARLINK-4658,1 53612U 22104AA  22285.91667824 -.01064130  00000-0 -14799-1 0  9996,2 53612  53.2170  61.7146 0001252  70.9087 139.1784 15.58931288  1300,6768.886,92.371,391.598,389.903,0.0
53612.0,STARLINK-4658,PAYLOAD,2022-10-13 14:00:01,15.57412089,0.0001210999999999,53.2173,58.488,55.2084,296.6011,-0.015665,-0.01063349,0.0,0 STARLINK-4658,1 53612U 22104AA  22286.58334491 -.01063349  00000-0 -15665-1 0  9995,2 53612  53.2173  58.4880 0001211  55.2084 296.6011 15.57412089  1303,6773.2869999999975,92.461,395.972,394.332,0.0
53612.0,STARLINK-4658,PAYLOAD,2022-10-13 20:00:01,15.56839988,0.0001169,53.2173,57.2809,60.0418,254.0375,-0.015928,-0.01058615,0.0,0 STARLINK-4658,1 53612U 22104AA  22286.83335648 -.01058615  00000-0 -15928-1 0  9990,2 53612  53.2173  57.2809 0001169  60.0418 254.0375 15.56839988  7372,6774.946,92.495,397.603,396.019,0.0
53612.0,STARLINK-4658,PAYLOAD,2022-10-13 22:00:00,15.56652309,0.0001239,53.2171,56.8781,52.2859,9.0156,-0.0160979999999999,-0.01062085,0.0,0 STARLINK-4658,1 53612U 22104AA  22286.91667824 -.01062085  00000-0 -16098-1 0  9998,2 53612  53.2171  56.8781 0001239  52.2859   9.0156 15.56652309  1306,6775.491,92.506,398.195,396.516,0.0
53612.0,STARLINK-4658,PAYLOAD,2022-10-14 14:00:01,15.55130301,0.0001486,53.2175,53.6628,54.2454,143.3038,-0.016959,-0.01057676,0.0,0 STARLINK-4658,1 53612U 22104AA  22287.58334491 -.01057676  00000-0 -16959-1 0  9999,2 53612  53.2175  53.6628 0001486  54.2454 143.3038 15.55130301  1305,6779.911,92.597,402.783,400.768,0.0
53612.0,STARLINK-4658,PAYLOAD,2022-10-14 16:00:00,15.54943414,0.0001336,53.2175,53.2619,54.1716,250.1502,-0.017164,-0.0106255,0.0,0 STARLINK-4658,1 53612U 22104AA  22287.66667824 -.01062550  00000-0 -17164-1 0  9993,2 53612  53.2175  53.2619 0001336  54.1716 250.1502 15.54943414  7502,6780.454000000002,92.608,403.225,401.413,0.0
53612.0,STARLINK-4658,PAYLOAD,2022-10-14 20:00:01,15.54559547,0.0001498,53.2174,52.4596,49.105,108.5952,-0.017274,-0.01055078,0.0,0 STARLINK-4658,1 53612U 22104AA  22287.83334491 -.01055078  00000-0 -17274-1 0  9992,2 53612  53.2174  52.4596 0001498  49.1050 108.5952 15.54559547  1307,6781.57,92.631,404.451,402.419,0.0
53612.0,STARLINK-4658,PAYLOAD,2022-10-15 14:00:01,15.52854893,0.000155,53.2175,48.8541,37.7116,357.3605,-0.018519,-0.01061933,0.0,0 STARLINK-4658,1 53612U 22104AA  22288.58334491 -.01061933  00000-0 -18519-1 0  9995,2 53612  53.2175  48.8541 0001550  37.7116 357.3605 15.52854893  7655,6786.531999999997,92.732,409.449,407.345,0.0
53612.0,STARLINK-4658,PAYLOAD,2022-10-15 22:00:01,15.52094221,0.0001557,53.2171,47.2546,41.0448,58.1087,-0.018991,-0.01059559,0.0,0 STARLINK-4658,1 53612U 22104AA  22288.91668981 -.01059559  00000-0 -18991-1 0  9991,2 53612  53.2171  47.2546 0001557  41.0448  58.1087 15.52094221  1309,6788.75,92.778,411.672,409.5580000000001,0.0
